{"type": "FeatureCollection", "features": [ {"type": "Feature", "properties": {"norad_id": 29906, "name": "FENGYUN 1C DEB", "group": "fengyun-1c-debris", "lat": -12.079227357264418, "lon": -82.93816967710212, "alt_km": 720.9988445219406, "timestamp": "2025-12-21T07:34:34.789491+00:00", "meta": {"OBJECT_NAME": "FENGYUN 1C DEB", "OBJECT_ID": "1999-025HC", "EPOCH": "2025-12-20T05:51:01.021248", "MEAN_MOTION": 14.49757032, "ECCENTRICITY": 0.0036627, "INCLINATION": 98.7066, "RA_OF_ASC_NODE": 97.8344, "ARG_OF_PERICENTER": 127.2425, "MEAN_ANOMALY": 233.2119, "EPHEMERIS_TYPE": 0, "CLASSIFICATION_TYPE": "U", "NORAD_CAT_ID": 29906, "ELEMENT_SET_NO": 999, "REV_AT_EPOCH": 98266, "BSTAR": 0.0014481, "MEAN_MOTION_DOT": 5.582e-05, "MEAN_MOTION_DDOT": 0}, "tle": {"line1": "1 29906U 99025HC  25354.24376182  .00005582  00000+0  14481-2 0  9992", "line2": "2 29906  98.7066  97.8344 0036627 127.2425 233.2119 14.49757032982660"}}, "geometry": {"type": "Point", "coordinates": [-82.93816967710212, -12.079227357264418]}}, {"type": "Feature", "properties": {"norad_id": 29907, "name": "FENGYUN 1C DEB", "group": "fengyun-1c-debris", "lat": -63.33791259752292, "lon": -136.51614240278408, "alt_km": 802.9409170777117, "timestamp": "2025-12-21T07:34:34.789501+00:00", "meta": {"OBJECT_NAME": "FENGYUN 1C DEB", "OBJECT_ID": "1999-025HD", "EPOCH": "2025-12-20T22:44:25.943136", "MEAN_MOTION": 14.11678055, "ECCENTRICITY": 0.0084582, "INCLINATION": 99.1112, "RA_OF_ASC_NODE": 61.7487, "ARG_OF_PERICENTER": 226.6374, "MEAN_ANOMALY": 307.8671, "EPHEMERIS_TYPE": 0, "CLASSIFICATION_TYPE": "U", "NORAD_CAT_ID": 29907, "ELEMENT_SET_NO": 999, "REV_AT_EPOCH": 96714, "BSTAR": 0.0013633332, "MEAN_MOTION_DOT": 2.52e-05, "MEAN_MOTION_DDOT": 0}, "tle": {"line1": "1 29907U 99025HD  25354.94752249  .00002520  00000+0  13633-2 0  9999", "line2": "2 29907  99.1112  61.7487 0084582 226.6374 307.8671 14.11678055967149"}}, "geometry": {"type": "Point", "coordinates": [-136.51614240278408, -63.33791259752292]}}, {"type": "Feature", "properties": {"norad_id": 29909, "name": "FENGYUN 1C DEB", "group": "fengyun-1c-debris", "lat": 74.40828136190369, "lon": 66.40926936131845, "alt_km": 700.7685946338952, "timestamp": "2025-12-21T07:34:34.789510+00:00", "meta": {"OBJECT_NAME": "FENGYUN 1C DEB", "OBJECT_ID": "1999-025HF", "EPOCH": "2025-12-20T20:13:45.242400", "MEAN_MOTION": 14.55242966, "ECCENTRICITY": 0.00381039, "INCLINATION": 98.6346, "RA_OF_ASC_NODE": 98.9141, "ARG_OF_PERICENTER": 349.6463, "MEAN_ANOMALY": 131.4366, "EPHEMERIS_TYPE": 0, "CLASSIFICATION_TYPE": "U", "NORAD_CAT_ID": 29909, "ELEMENT_SET_NO": 999, "REV_AT_EPOCH": 98523, "BSTAR": 0.0012261898, "MEAN_MOTION_DOT": 5.312e-05, "MEAN_MOTION_DDOT": 0}, "tle": {"line1": "1 29909U 99025HF  25354.84288475  .00005312  00000+0  12262-2 0  9994", "line2": "2 29909  98.6346  98.9141 0038103 349.6463 131.4366 14.55242966985234"}}, "geometry": {"type": "Point", "coordinates": [66.40926936131845, 74.40828136190369]}}, {"type": "Feature", "properties": {"norad_id": 29911, "name": "FENGYUN 1C DEB", "group": "fengyun-1c-debris", "lat": -2.4713665501132582, "lon": -142.097386285766, "alt_km": 821.0630191393675, "timestamp": "2025-12-21T07:34:34.789519+00:00", "meta": {"OBJECT_NAME": "FENGYUN 1C DEB", "OBJECT_ID": "1999-025HH", "EPOCH": "2025-12-20T16:04:53.222880", "MEAN_MOTION": 14.18876002, "ECCENTRICITY": 0.00274247, "INCLINATION": 98.7148, "RA_OF_ASC_NODE": 37.6474, "ARG_OF_PERICENTER": 129.036, "MEAN_ANOMALY": 357.1459, "EPHEMERIS_TYPE": 0, "CLASSIFICATION_TYPE": "U", "NORAD_CAT_ID": 29911, "ELEMENT_SET_NO": 999, "REV_AT_EPOCH": 97543, "BSTAR": 0.00051095451, "MEAN_MOTION_DOT": 1.024e-05, "MEAN_MOTION_DDOT": 0}, "tle": {"line1": "1 29911U 99025HH  25354.67006045  .00001024  00000+0  51095-3 0  9993", "line2": "2 29911  98.7148  37.6474 0027424 129.0360 357.1459 14.18876002975431"}}, "geometry": {"type": "Point", "coordinates": [-142.097386285766, -2.4713665501132582]}}, {"type": "Feature", "properties": {"norad_id": 29912, "name": "FENGYUN 1C DEB", "group": "fengyun-1c-debris", "lat": 14.81562419739042, "lon": -84.68742170320864, "alt_km": 722.2006564255598, "timestamp": "2025-12-21T07:34:34.789528+00:00", "meta": {"OBJECT_NAME": "FENGYUN 1C DEB", "OBJECT_ID": "1999-025HJ", "EPOCH": "2025-12-20T05:58:41.998944", "MEAN_MOTION": 14.43076298, "ECCENTRICITY": 0.0043248, "INCLINATION": 98.7395, "RA_OF_ASC_NODE": 91.8872, "ARG_OF_PERICENTER": 197.2415, "MEAN_ANOMALY": 190.0813, "EPHEMERIS_TYPE": 0, "CLASSIFICATION_TYPE": "U", "NORAD_CAT_ID": 29912, "ELEMENT_SET_NO": 999, "REV_AT_EPOCH": 98147, "BSTAR": 0.0014256, "MEAN_MOTION_DOT": 4.791e-05, "MEAN_MOTION_DDOT": 0}, "tle": {"line1": "1 29912U 99025HJ  25354.24909721  .00004791  00000+0  14256-2 0  9991", "line2": "2 29912  98.7395  91.8872 0043248 197.2415 190.0813 14.43076298981476"}}, "geometry": {"type": "Point", "coordinates": [-84.68742170320864, 14.81562419739042]}}, {"type": "Feature", "properties": {"norad_id": 29913, "name": "FENGYUN 1C DEB", "group": "fengyun-1c-debris", "lat": -73.36466647183012, "lon": 142.75214595003249, "alt_km": 831.2901061179464, "timestamp": "2025-12-21T07:34:34.789537+00:00", "meta": {"OBJECT_NAME": "FENGYUN 1C DEB", "OBJECT_ID": "1999-025HK", "EPOCH": "2025-12-20T12:11:01.056768", "MEAN_MOTION": 14.07391308, "ECCENTRICITY": 0.00618362, "INCLINATION": 98.7877, "RA_OF_ASC_NODE": 353.1456, "ARG_OF_PERICENTER": 249.3013, "MEAN_ANOMALY": 234.6873, "EPHEMERIS_TYPE": 0, "CLASSIFICATION_TYPE": "U", "NORAD_CAT_ID": 29913, "ELEMENT_SET_NO": 999, "REV_AT_EPOCH": 97074, "BSTAR": 0.00024262285, "MEAN_MOTION_DOT": 3.72e-06, "MEAN_MOTION_DDOT": 0}, "tle": {"line1": "1 29913U 99025HK  25354.50765112  .00000372  00000+0  24262-3 0  9995", "line2": "2 29913  98.7877 353.1456 0061836 249.3013 234.6873 14.07391308970741"}}, "geometry": {"type": "Point", "coordinates": [142.75214595003249, -73.36466647183012]}}, {"type": "Feature", "properties": {"norad_id": 29914, "name": "FENGYUN 1C DEB", "group": "fengyun-1c-debris", "lat": -79.8108051375153, "lon": 143.63931566889522, "alt_km": 916.7999995539813, "timestamp": "2025-12-21T07:34:34.789546+00:00", "meta": {"OBJECT_NAME": "FENGYUN 1C DEB", "OBJECT_ID": "1999-025HL", "EPOCH": "2025-12-20T20:53:40.950240", "MEAN_MOTION": 14.03132721, "ECCENTRICITY": 0.00367567, "INCLINATION": 98.8428, "RA_OF_ASC_NODE": 23.2176, "ARG_OF_PERICENTER": 92.8324, "MEAN_ANOMALY": 85.1163, "EPHEMERIS_TYPE": 0, "CLASSIFICATION_TYPE": "U", "NORAD_CAT_ID": 29914, "ELEMENT_SET_NO": 999, "REV_AT_EPOCH": 96900, "BSTAR": -4.9177113e-05, "MEAN_MOTION_DOT": -1.2e-06, "MEAN_MOTION_DDOT": 0}, "tle": {"line1": "1 29914U 99025HL  25354.87061285 -.00000120  00000+0 -49177-4 0  9992", "line2": "2 29914  98.8428  23.2176 0036756  92.8324  85.1163 14.03132721969004"}}, "geometry": {"type": "Point", "coordinates": [143.63931566889522, -79.8108051375153]}}, {"type": "Feature", "properties": {"norad_id": 29916, "name": "FENGYUN 1C DEB", "group": "fengyun-1c-debris", "lat": -72.40259244579774, "lon": 44.71442566692384, "alt_km": 917.4322371560838, "timestamp": "2025-12-21T07:34:34.789555+00:00", "meta": {"OBJECT_NAME": "FENGYUN 1C DEB", "OBJECT_ID": "1999-025HN", "EPOCH": "2025-12-20T00:14:27.544128", "MEAN_MOTION": 13.56992468, "ECCENTRICITY": 0.0271399, "INCLINATION": 99.1938, "RA_OF_ASC_NODE": 12.7884, "ARG_OF_PERICENTER": 239.8984, "MEAN_ANOMALY": 147.9628, "EPHEMERIS_TYPE": 0, "CLASSIFICATION_TYPE": "U", "NORAD_CAT_ID": 29916, "ELEMENT_SET_NO": 999, "REV_AT_EPOCH": 93551, "BSTAR": 0.00052045618, "MEAN_MOTION_DOT": 4.27e-06, "MEAN_MOTION_DDOT": 0}, "tle": {"line1": "1 29916U 99025HN  25354.01004102  .00000427  00000+0  52046-3 0  9991", "line2": "2 29916  99.1938  12.7884 0271399 239.8984 147.9628 13.56992468935515"}}, "geometry": {"type": "Point", "coordinates": [44.71442566692384, -72.40259244579774]}}, {"type": "Feature", "properties": {"norad_id": 29917, "name": "FENGYUN 1C DEB", "group": "fengyun-1c-debris", "lat": 64.40808469452892, "lon": -162.74033725948092, "alt_km": 856.6405378714808, "timestamp": "2025-12-21T07:34:34.789564+00:00", "meta": {"OBJECT_NAME": "FENGYUN 1C DEB", "OBJECT_ID": "1999-025HP", "EPOCH": "2025-12-20T20:48:02.678688", "MEAN_MOTION": 13.70430748, "ECCENTRICITY": 0.02232784, "INCLINATION": 98.8766, "RA_OF_ASC_NODE": 215.8882, "ARG_OF_PERICENTER": 102.7986, "MEAN_ANOMALY": 270.7227, "EPHEMERIS_TYPE": 0, "CLASSIFICATION_TYPE": "U", "NORAD_CAT_ID": 29917, "ELEMENT_SET_NO": 999, "REV_AT_EPOCH": 94242, "BSTAR": 0.0010531809, "MEAN_MOTION_DOT": 1.073e-05, "MEAN_MOTION_DDOT": 0}, "tle": {"line1": "1 29917U 99025HP  25354.86669767  .00001073  00000+0  10532-2 0  9990", "line2": "2 29917  98.8766 215.8882 0223278 102.7986 270.7227 13.70430748942420"}}, "geometry": {"type": "Point", "coordinates": [-162.74033725948092, 64.40808469452892]}}, {"type": "Feature", "properties": {"norad_id": 29918, "name": "FENGYUN 1C DEB", "group": "fengyun-1c-debris", "lat": 43.94173607945323, "lon": 69.30959561191209, "alt_km": 779.8664520592656, "timestamp": "2025-12-21T07:34:34.789573+00:00", "meta": {"OBJECT_NAME": "FENGYUN 1C DEB", "OBJECT_ID": "1999-025HQ", "EPOCH": "2025-12-20T20:11:00.165696", "MEAN_MOTION": 14.33656172, "ECCENTRICITY": 0.00132597, "INCLINATION": 98.8545, "RA_OF_ASC_NODE": 77.4642, "ARG_OF_PERICENTER": 290.5469, "MEAN_ANOMALY": 185.3603, "EPHEMERIS_TYPE": 0, "CLASSIFICATION_TYPE": "U", "NORAD_CAT_ID": 29918, "ELEMENT_SET_NO": 999, "REV_AT_EPOCH": 97910, "BSTAR": 0.0010040369, "MEAN_MOTION_DOT": 2.741e-05, "MEAN_MOTION_DDOT": 0}, "tle": {"line1": "1 29918U 99025HQ  25354.84097414  .00002741  00000+0  10040-2 0  9990", "line2": "2 29918  98.8545  77.4642 0013259 290.5469 185.3603 14.33656172979105"}}, "geometry": {"type": "Point", "coordinates": [69.30959561191209, 43.94173607945323]}}]}